{
  "type": "FeatureCollection",
  "features": [
    {
      "type": "Feature",
      "properties": {
        "norad_id": 19071,
        "name": "OSCAR 32",
        "group": "nnss",
        "lat": -73.36321120783408,
        "lon": -164.21222917926727,
        "alt_km": 1223.689036956037,
        "timestamp": "2025-12-23T14:49:09.659498+00:00",
        "meta_object_name": "OSCAR 32",
        "meta_object_id": "1988-033B",
        "meta_epoch": "2025-12-23T03:03:44.614080",
        "meta_mean_motion": 13.27955615,
        "meta_eccentricity": 0.01891185,
        "meta_inclination": 90.3208,
        "meta_ra_of_asc_node": 16.8468,
        "meta_arg_of_pericenter": 138.0201,
        "meta_mean_anomaly": 292.8175,
        "meta_ephemeris_type": 0,
        "meta_classification_type": "U",
        "meta_norad_cat_id": 19071,
        "meta_element_set_no": 999,
        "meta_rev_at_epoch": 82403,
        "meta_bstar": 0.00014379305,
        "meta_mean_motion_dot": 8.1e-07,
        "meta_mean_motion_ddot": 0,
        "tle_line1": "1 19071U 88033B   25357.12759970  .00000081  00000+0  14379-3 0  9997",
        "tle_line2": "2 19071  90.3208  16.8468 0189118 138.0201 292.8175 13.27955615824033"
      },
      "geometry": {
        "type": "Point",
        "coordinates": [
          -164.21222917926727,
          -73.36321120783408
        ]
      }
    },
    {
      "type": "Feature",
      "properties": {
        "norad_id": 19223,
        "name": "NOVA 2",
        "group": "nnss",
        "lat": -72.07075847724785,
        "lon": -101.69997335116904,
        "alt_km": 1182.7399938929093,
        "timestamp": "2025-12-23T14:49:09.659509+00:00",
        "meta_object_name": "NOVA 2",
        "meta_object_id": "1988-052A",
        "meta_epoch": "2025-12-22T19:59:41.866944",
        "meta_mean_motion": 13.22936943,
        "meta_eccentricity": 0.00297225,
        "meta_inclination": 89.9867,
        "meta_ra_of_asc_node": 78.2599,
        "meta_arg_of_pericenter": 349.0095,
        "meta_mean_anomaly": 130.0034,
        "meta_ephemeris_type": 0,
        "meta_classification_type": "U",
        "meta_norad_cat_id": 19223,
        "meta_element_set_no": 999,
        "meta_rev_at_epoch": 81081,
        "meta_bstar": 0.00019678035,
        "meta_mean_motion_dot": 9.1e-07,
        "meta_mean_motion_ddot": 0,
        "tle_line1": "1 19223U 88052A   25356.83312346  .00000091  00000+0  19678-3 0  9994",
        "tle_line2": "2 19223  89.9867  78.2599 0029722 349.0095 130.0034 13.22936943810819"
      },
      "geometry": {
        "type": "Point",
        "coordinates": [
          -101.69997335116904,
          -72.07075847724785
        ]
      }
    },
    {
      "type": "Feature",
      "properties": {
        "norad_id": 19419,
        "name": "OSCAR 25",
        "group": "nnss",
        "lat": 18.676303706609488,
        "lon": 20.268051885312875,
        "alt_km": 1168.176647105547,
        "timestamp": "2025-12-23T14:49:09.659521+00:00",
        "meta_object_name": "OSCAR 25",
        "meta_object_id": "1988-074A",
        "meta_epoch": "2025-12-23T02:17:56.668992",
        "meta_mean_motion": 13.42625235,
        "meta_eccentricity": 0.00950503,
        "meta_inclination": 90.0337,
        "meta_ra_of_asc_node": 20.2777,
        "meta_arg_of_pericenter": 215.8861,
        "meta_mean_anomaly": 162.583,
        "meta_ephemeris_type": 0,
        "meta_classification_type": "U",
        "meta_norad_cat_id": 19419,
        "meta_element_set_no": 999,
        "meta_rev_at_epoch": 82779,
        "meta_bstar": 0.00013648266,
        "meta_mean_motion_dot": 8.8e-07,
        "meta_mean_motion_ddot": 0,
        "tle_line1": "1 19419U 88074A   25357.09579478  .00000088  00000+0  13648-3 0  9992",
        "tle_line2": "2 19419  90.0337  20.2777 0095050 215.8861 162.5830 13.42625235827794"
      },
      "geometry": {
        "type": "Point",
        "coordinates": [
          20.268051885312875,
          18.676303706609488
        ]
      }
    },
    {
      "type": "Feature",
      "properties": {
        "norad_id": 19420,
        "name": "OSCAR 31",
        "group": "nnss",
        "lat": -81.60948845322042,
        "lon": -159.60892615244705,
        "alt_km": 1064.7084923364246,
        "timestamp": "2025-12-23T14:49:09.659532+00:00",
        "meta_object_name": "OSCAR 31",
        "meta_object_id": "1988-074B",
        "meta_epoch": "2025-12-23T03:06:15.438240",
        "meta_mean_motion": 13.42586375,
        "meta_eccentricity": 0.00934358,
        "meta_inclination": 90.0354,
        "meta_ra_of_asc_node": 20.6295,
        "meta_arg_of_pericenter": 209.9326,
        "meta_mean_anomaly": 212.9273,
        "meta_ephemeris_type": 0,
        "meta_classification_type": "U",
        "meta_norad_cat_id": 19420,
        "meta_element_set_no": 999,
        "meta_rev_at_epoch": 82790,
        "meta_bstar": 0.00012640096,
        "meta_mean_motion_dot": 8.2e-07,
        "meta_mean_motion_ddot": 0,
        "tle_line1": "1 19420U 88074B   25357.12934535  .00000082  00000+0  12640-3 0  9992",
        "tle_line2": "2 19420  90.0354  20.6295 0093435 209.9326 212.9273 13.42586375827904"
      },
      "geometry": {
        "type": "Point",
        "coordinates": [
          -159.60892615244705,
          -81.60948845322042
        ]
      }
    }
  ]
}